CCSDS_OMM_VERS = 2.0
CREATION_DATE  = 
ORIGINATOR     = 

OBJECT_NAME    = CZ-2C R/B
OBJECT_ID      = 2022-132E
CENTER_NAME    = EARTH
REF_FRAME      = TEME
TIME_SYSTEM    = UTC
MEAN_ELEMENT_THEORY = SGP/SGP4

EPOCH          = 2026-02-09T20:43:00.111072
MEAN_MOTION    = 15.59428274
ECCENTRICITY   = .00185102
INCLINATION    = 97.2963
RA_OF_ASC_NODE = 43.3922
ARG_OF_PERICENTER = 184.9215
MEAN_ANOMALY   = 175.1863

EPHEMERIS_TYPE = 0
CLASSIFICATION_TYPE = U
NORAD_CAT_ID   = 54039
ELEMENT_SET_NO = 999
REV_AT_EPOCH   = 18603
BSTAR          = .48621351E-3
MEAN_MOTION_DOT = .3875E-3
MEAN_MOTION_DDOT = 0

CCSDS_OMM_VERS = 2.0
CREATION_DATE  = 
ORIGINATOR     = 

OBJECT_NAME    = GSLV R/B
OBJECT_ID      = 2022-138AN
CENTER_NAME    = EARTH
REF_FRAME      = TEME
TIME_SYSTEM    = UTC
MEAN_ELEMENT_THEORY = SGP/SGP4

EPOCH          = 2026-02-09T20:09:31.133952
MEAN_MOTION    = 14.96559791
ECCENTRICITY   = .00193973
INCLINATION    = 87.3860
RA_OF_ASC_NODE = 175.6808
ARG_OF_PERICENTER = 251.3107
MEAN_ANOMALY   = 108.6019

EPHEMERIS_TYPE = 0
CLASSIFICATION_TYPE = U
NORAD_CAT_ID   = 54149
ELEMENT_SET_NO = 999
REV_AT_EPOCH   = 17976
BSTAR          = .37607622E-3
MEAN_MOTION_DOT = .432E-4
MEAN_MOTION_DDOT = 0

CCSDS_OMM_VERS = 2.0
CREATION_DATE  = 
ORIGINATOR     = 

OBJECT_NAME    = XRISM
OBJECT_ID      = 2023-137A
CENTER_NAME    = EARTH
REF_FRAME      = TEME
TIME_SYSTEM    = UTC
MEAN_ELEMENT_THEORY = SGP/SGP4

EPOCH          = 2026-02-09T05:47:19.290336
MEAN_MOTION    = 15.11146318
ECCENTRICITY   = .0008059
INCLINATION    = 31.0018
RA_OF_ASC_NODE = 107.6122
ARG_OF_PERICENTER = 115.7992
MEAN_ANOMALY   = 244.3478

EPHEMERIS_TYPE = 0
CLASSIFICATION_TYPE = U
NORAD_CAT_ID   = 57800
ELEMENT_SET_NO = 999
REV_AT_EPOCH   = 13348
BSTAR          = .40858E-3
MEAN_MOTION_DOT = .7124E-4
MEAN_MOTION_DDOT = 0

CCSDS_OMM_VERS = 2.0
CREATION_DATE  = 
ORIGINATOR     = 

OBJECT_NAME    = ACS3
OBJECT_ID      = 2024-077B
CENTER_NAME    = EARTH
REF_FRAME      = TEME
TIME_SYSTEM    = UTC
MEAN_ELEMENT_THEORY = SGP/SGP4

EPOCH          = 2026-02-09T21:47:31.020288
MEAN_MOTION    = 13.88456409
ECCENTRICITY   = .00456344
INCLINATION    = 97.2209
RA_OF_ASC_NODE = 348.2662
ARG_OF_PERICENTER = 162.6901
MEAN_ANOMALY   = 197.5830

EPHEMERIS_TYPE = 0
CLASSIFICATION_TYPE = U
NORAD_CAT_ID   = 59588
ELEMENT_SET_NO = 999
REV_AT_EPOCH   = 9034
BSTAR          = .17073913E-1
MEAN_MOTION_DOT = .20685E-3
MEAN_MOTION_DDOT = 0

CCSDS_OMM_VERS = 2.0
CREATION_DATE  = 
ORIGINATOR     = 

OBJECT_NAME    = SZ-21 MODULE
OBJECT_ID      = 2025-246C
CENTER_NAME    = EARTH
REF_FRAME      = TEME
TIME_SYSTEM    = UTC
MEAN_ELEMENT_THEORY = SGP/SGP4

EPOCH          = 2026-02-09T06:34:48.565344
MEAN_MOTION    = 15.66393879
ECCENTRICITY   = .0002766
INCLINATION    = 41.4766
RA_OF_ASC_NODE = 17.9863
ARG_OF_PERICENTER = 286.9466
MEAN_ANOMALY   = 73.1072

EPHEMERIS_TYPE = 0
CLASSIFICATION_TYPE = U
NORAD_CAT_ID   = 66515
ELEMENT_SET_NO = 999
REV_AT_EPOCH   = 1361
BSTAR          = .34919E-3
MEAN_MOTION_DOT = .37161E-3
MEAN_MOTION_DDOT = 0

